[{"OBJECT_NAME":"STARLINK-11072 [DTC]","OBJECT_ID":"2024-002A","EPOCH":"2026-03-09T20:33:48.555072","MEAN_MOTION":15.69686434,"ECCENTRICITY":0.00010468,"INCLINATION":53.1587,"RA_OF_ASC_NODE":273.1911,"ARG_OF_PERICENTER":130.7449,"MEAN_ANOMALY":229.366,"EPHEMERIS_TYPE":0,"CLASSIFICATION_TYPE":"U","NORAD_CAT_ID":58705,"ELEMENT_SET_NO":999,"REV_AT_EPOCH":12646,"BSTAR":-9.575718e-6,"MEAN_MOTION_DOT":-1.747e-5,"MEAN_MOTION_DDOT":0},{"OBJECT_NAME":"SL-16 DEB","OBJECT_ID":"1992-093LF","EPOCH":"2026-03-01T22:50:07.505664","MEAN_MOTION":15.66314523,"ECCENTRICITY":0.0005733,"INCLINATION":71.2496,"RA_OF_ASC_NODE":309.1259,"ARG_OF_PERICENTER":53.7691,"MEAN_ANOMALY":306.4041,"EPHEMERIS_TYPE":0,"CLASSIFICATION_TYPE":"U","NORAD_CAT_ID":39853,"ELEMENT_SET_NO":999,"REV_AT_EPOCH":63666,"BSTAR":0.0026636,"MEAN_MOTION_DOT":0.00285901,"MEAN_MOTION_DDOT":0}]
